[{"OBJECT_NAME":"STARLINK-36957","OBJECT_ID":"2026-039D","EPOCH":"2026-03-09T22:00:01.999584","MEAN_MOTION":15.82934137,"ECCENTRICITY":0.00016393,"INCLINATION":42.9988,"RA_OF_ASC_NODE":53.5138,"ARG_OF_PERICENTER":259.2068,"MEAN_ANOMALY":12.6371,"EPHEMERIS_TYPE":0,"CLASSIFICATION_TYPE":"U","NORAD_CAT_ID":67989,"ELEMENT_SET_NO":999,"REV_AT_EPOCH":291,"BSTAR":-0.0060413945,"MEAN_MOTION_DOT":-0.01183939,"MEAN_MOTION_DDOT":0},{"OBJECT_NAME":"M-3H DEB","OBJECT_ID":"1978-087C","EPOCH":"2026-03-08T10:18:42.464160","MEAN_MOTION":7.28472959,"ECCENTRICITY":0.40983728,"INCLINATION":31.3298,"RA_OF_ASC_NODE":106.7851,"ARG_OF_PERICENTER":67.6865,"MEAN_ANOMALY":23.1488,"EPHEMERIS_TYPE":0,"CLASSIFICATION_TYPE":"U","NORAD_CAT_ID":27731,"ELEMENT_SET_NO":999,"REV_AT_EPOCH":24348,"BSTAR":0.0019957509,"MEAN_MOTION_DOT":0.00043285,"MEAN_MOTION_DDOT":0}]
